[{"OBJECT_NAME":"STARLINK-36752","OBJECT_ID":"2026-026D","EPOCH":"2026-03-09T22:00:01.999584","MEAN_MOTION":15.46482653,"ECCENTRICITY":0.00018907,"INCLINATION":97.2844,"RA_OF_ASC_NODE":123.451,"ARG_OF_PERICENTER":58.7444,"MEAN_ANOMALY":34.5153,"EPHEMERIS_TYPE":0,"CLASSIFICATION_TYPE":"U","NORAD_CAT_ID":67724,"ELEMENT_SET_NO":999,"REV_AT_EPOCH":535,"BSTAR":-0.04296969,"MEAN_MOTION_DOT":-0.01910679,"MEAN_MOTION_DDOT":0},{"OBJECT_NAME":"CZ-4 DEB","OBJECT_ID":"2003-049H","EPOCH":"2026-03-08T08:27:28.944576","MEAN_MOTION":15.27137095,"ECCENTRICITY":0.00307627,"INCLINATION":98.6284,"RA_OF_ASC_NODE":272.5918,"ARG_OF_PERICENTER":169.0311,"MEAN_ANOMALY":191.1601,"EPHEMERIS_TYPE":0,"CLASSIFICATION_TYPE":"U","NORAD_CAT_ID":35381,"ELEMENT_SET_NO":999,"REV_AT_EPOCH":18390,"BSTAR":0.0032047887,"MEAN_MOTION_DOT":0.00087287,"MEAN_MOTION_DDOT":0}]
